[{"OBJECT_NAME":"STARLINK-3796","OBJECT_ID":"2022-045AT","EPOCH":"2026-03-09T13:27:54.929088","MEAN_MOTION":15.08830421,"ECCENTRICITY":0.0001294,"INCLINATION":53.2176,"RA_OF_ASC_NODE":189.6983,"ARG_OF_PERICENTER":97.297,"MEAN_ANOMALY":262.8169,"EPHEMERIS_TYPE":0,"CLASSIFICATION_TYPE":"U","NORAD_CAT_ID":52372,"ELEMENT_SET_NO":999,"REV_AT_EPOCH":21589,"BSTAR":-6.5789e-6,"MEAN_MOTION_DOT":-3.93e-6,"MEAN_MOTION_DDOT":0},{"OBJECT_NAME":"CZ-3A DEB","OBJECT_ID":"2007-003F","EPOCH":"2026-03-08T22:21:20.508768","MEAN_MOTION":14.58467105,"ECCENTRICITY":0.0649924,"INCLINATION":24.4834,"RA_OF_ASC_NODE":279.0209,"ARG_OF_PERICENTER":309.693,"MEAN_ANOMALY":44.7989,"EPHEMERIS_TYPE":0,"CLASSIFICATION_TYPE":"U","NORAD_CAT_ID":35547,"ELEMENT_SET_NO":999,"REV_AT_EPOCH":3882,"BSTAR":0.013221525,"MEAN_MOTION_DOT":0.02115259,"MEAN_MOTION_DDOT":0.00076423761}]
